{
  "type": "FeatureCollection",
  "features": [
    {
      "type": "Feature",
      "properties": {
        "norad_id": 66808,
        "name": "STARLINK-36071",
        "group": "last-30-days",
        "lat": -38.52693293228884,
        "lon": 90.83033363142589,
        "alt_km": 367.7424153390484,
        "timestamp": "2025-12-19T06:59:42.650789+00:00",
        "meta_object_name": "STARLINK-36071",
        "meta_object_id": "2025-278T",
        "meta_epoch": "2025-12-19T00:00:02.000160",
        "meta_mean_motion": 15.68849761,
        "meta_eccentricity": 0.00016925,
        "meta_inclination": 42.9994,
        "meta_ra_of_asc_node": 213.8808,
        "meta_arg_of_pericenter": 272.9595,
        "meta_mean_anomaly": 125.6402,
        "meta_ephemeris_type": 0,
        "meta_classification_type": "U",
        "meta_norad_cat_id": 66808,
        "meta_element_set_no": 999,
        "meta_rev_at_epoch": 396,
        "meta_bstar": -0.018028948,
        "meta_mean_motion_dot": -0.01890464,
        "meta_mean_motion_ddot": 0,
        "tle_line1": "1 66808U 25278T   25353.00002315 -.01890464  00000+0 -18029-1 0  9995",
        "tle_line2": "2 66808  42.9994 213.8808 0001692 272.9595 125.6402 15.68849761  3967"
      },
      "geometry": {
        "type": "Point",
        "coordinates": [
          90.83033363142589,
          -38.52693293228884
        ]
      }
    },
    {
      "type": "Feature",
      "properties": {
        "norad_id": 66809,
        "name": "STARLINK-35979",
        "group": "last-30-days",
        "lat": -40.35542149712747,
        "lon": 97.88486410200146,
        "alt_km": 367.81036287623556,
        "timestamp": "2025-12-19T06:59:42.650799+00:00",
        "meta_object_name": "STARLINK-35979",
        "meta_object_id": "2025-278U",
        "meta_epoch": "2025-12-19T00:00:02.000160",
        "meta_mean_motion": 15.68816294,
        "meta_eccentricity": 0.00018181,
        "meta_inclination": 42.9992,
        "meta_ra_of_asc_node": 213.8654,
        "meta_arg_of_pericenter": 277.8804,
        "meta_mean_anomaly": 126.5141,
        "meta_ephemeris_type": 0,
        "meta_classification_type": "U",
        "meta_norad_cat_id": 66809,
        "meta_element_set_no": 999,
        "meta_rev_at_epoch": 396,
        "meta_bstar": -0.017896204,
        "meta_mean_motion_dot": -0.01875866,
        "meta_mean_motion_ddot": 0,
        "tle_line1": "1 66809U 25278U   25353.00002315 -.01875866  00000+0 -17896-1 0  9996",
        "tle_line2": "2 66809  42.9992 213.8654 0001818 277.8804 126.5141 15.68816294  3967"
      },
      "geometry": {
        "type": "Point",
        "coordinates": [
          97.88486410200146,
          -40.35542149712747
        ]
      }
    },
    {
      "type": "Feature",
      "properties": {
        "norad_id": 66810,
        "name": "STARLINK-36046",
        "group": "last-30-days",
        "lat": -39.182141861050006,
        "lon": 93.13478491443922,
        "alt_km": 367.817176461328,
        "timestamp": "2025-12-19T06:59:42.650814+00:00",
        "meta_object_name": "STARLINK-36046",
        "meta_object_id": "2025-278V",
        "meta_epoch": "2025-12-19T00:00:02.000160",
        "meta_mean_motion": 15.68855697,
        "meta_eccentricity": 0.00016434,
        "meta_inclination": 42.9994,
        "meta_ra_of_asc_node": 213.8762,
        "meta_arg_of_pericenter": 276.4524,
        "meta_mean_anomaly": 124.06,
        "meta_ephemeris_type": 0,
        "meta_classification_type": "U",
        "meta_norad_cat_id": 66810,
        "meta_element_set_no": 999,
        "meta_rev_at_epoch": 373,
        "meta_bstar": -0.018082651,
        "meta_mean_motion_dot": -0.0189584,
        "meta_mean_motion_ddot": 0,
        "tle_line1": "1 66810U 25278V   25353.00002315 -.01895840  00000+0 -18083-1 0  9991",
        "tle_line2": "2 66810  42.9994 213.8762 0001643 276.4524 124.0600 15.68855697  3739"
      },
      "geometry": {
        "type": "Point",
        "coordinates": [
          93.13478491443922,
          -39.182141861050006
        ]
      }
    },
    {
      "type": "Feature",
      "properties": {
        "norad_id": 66811,
        "name": "STARLINK-36045",
        "group": "last-30-days",
        "lat": -39.79202351692911,
        "lon": 95.4857136371673,
        "alt_km": 367.8952771870363,
        "timestamp": "2025-12-19T06:59:42.650824+00:00",
        "meta_object_name": "STARLINK-36045",
        "meta_object_id": "2025-278W",
        "meta_epoch": "2025-12-19T00:00:02.000160",
        "meta_mean_motion": 15.68852015,
        "meta_eccentricity": 0.00014779,
        "meta_inclination": 42.9992,
        "meta_ra_of_asc_node": 213.871,
        "meta_arg_of_pericenter": 273.5084,
        "meta_mean_anomaly": 128.9247,
        "meta_ephemeris_type": 0,
        "meta_classification_type": "U",
        "meta_norad_cat_id": 66811,
        "meta_element_set_no": 999,
        "meta_rev_at_epoch": 396,
        "meta_bstar": -0.018048869,
        "meta_mean_motion_dot": -0.01892318,
        "meta_mean_motion_ddot": 0,
        "tle_line1": "1 66811U 25278W   25353.00002315 -.01892318  00000+0 -18049-1 0  9991",
        "tle_line2": "2 66811  42.9992 213.8710 0001477 273.5084 128.9247 15.68852015  3961"
      },
      "geometry": {
        "type": "Point",
        "coordinates": [
          95.4857136371673,
          -39.79202351692911
        ]
      }
    },
    {
      "type": "Feature",
      "properties": {
        "norad_id": 66812,
        "name": "STARLINK-36054",
        "group": "last-30-days",
        "lat": -40.86309402686948,
        "lon": 100.29679800687977,
        "alt_km": 367.86515515622887,
        "timestamp": "2025-12-19T06:59:42.650836+00:00",
        "meta_object_name": "STARLINK-36054",
        "meta_object_id": "2025-278X",
        "meta_epoch": "2025-12-19T00:00:02.000160",
        "meta_mean_motion": 15.68859701,
        "meta_eccentricity": 0.000156,
        "meta_inclination": 42.9995,
        "meta_ra_of_asc_node": 213.8614,
        "meta_arg_of_pericenter": 275.2317,
        "meta_mean_anomaly": 131.0292,
        "meta_ephemeris_type": 0,
        "meta_classification_type": "U",
        "meta_norad_cat_id": 66812,
        "meta_element_set_no": 999,
        "meta_rev_at_epoch": 396,
        "meta_bstar": -0.018124607,
        "meta_mean_motion_dot": -0.0189996,
        "meta_mean_motion_ddot": 0,
        "tle_line1": "1 66812U 25278X   25353.00002315 -.01899960  00000+0 -18125-1 0  9997",
        "tle_line2": "2 66812  42.9995 213.8614 0001560 275.2317 131.0292 15.68859701  3963"
      },
      "geometry": {
        "type": "Point",
        "coordinates": [
          100.29679800687977,
          -40.86309402686948
        ]
      }
    },
    {
      "type": "Feature",
      "properties": {
        "norad_id": 66813,
        "name": "STARLINK-36042",
        "group": "last-30-days",
        "lat": -41.3209403883476,
        "lon": 102.75700239421441,
        "alt_km": 367.866475233247,
        "timestamp": "2025-12-19T06:59:42.650846+00:00",
        "meta_object_name": "STARLINK-36042",
        "meta_object_id": "2025-278Y",
        "meta_epoch": "2025-12-19T00:00:02.000160",
        "meta_mean_motion": 15.68862889,
        "meta_eccentricity": 0.00015751,
        "meta_inclination": 42.9987,
        "meta_ra_of_asc_node": 213.8563,
        "meta_arg_of_pericenter": 276.37,
        "meta_mean_anomaly": 131.8051,
        "meta_ephemeris_type": 0,
        "meta_classification_type": "U",
        "meta_norad_cat_id": 66813,
        "meta_element_set_no": 999,
        "meta_rev_at_epoch": 396,
        "meta_bstar": -0.01815997,
        "meta_mean_motion_dot": -0.01903484,
        "meta_mean_motion_ddot": 0,
        "tle_line1": "1 66813U 25278Y   25353.00002315 -.01903484  00000+0 -18160-1 0  9994",
        "tle_line2": "2 66813  42.9987 213.8563 0001575 276.3700 131.8051 15.68862889  3964"
      },
      "geometry": {
        "type": "Point",
        "coordinates": [
          102.75700239421441,
          -41.3209403883476
        ]
      }
    },
    {
      "type": "Feature",
      "properties": {
        "norad_id": 66814,
        "name": "STARLINK-35984",
        "group": "last-30-days",
        "lat": -42.90935645189843,
        "lon": 118.08946775190984,
        "alt_km": 367.8549987631941,
        "timestamp": "2025-12-19T06:59:42.650857+00:00",
        "meta_object_name": "STARLINK-35984",
        "meta_object_id": "2025-278Z",
        "meta_epoch": "2025-12-19T00:00:02.000160",
        "meta_mean_motion": 15.68861093,
        "meta_eccentricity": 0.00015632,
        "meta_inclination": 42.9993,
        "meta_ra_of_asc_node": 213.8262,
        "meta_arg_of_pericenter": 274.0645,
        "meta_mean_anomaly": 145.6147,
        "meta_ephemeris_type": 0,
        "meta_classification_type": "U",
        "meta_norad_cat_id": 66814,
        "meta_element_set_no": 999,
        "meta_rev_at_epoch": 405,
        "meta_bstar": -0.01814094,
        "meta_mean_motion_dot": -0.01901579,
        "meta_mean_motion_ddot": 0,
        "tle_line1": "1 66814U 25278Z   25353.00002315 -.01901579  00000+0 -18141-1 0  9997",
        "tle_line2": "2 66814  42.9993 213.8262 0001563 274.0645 145.6147 15.68861093  4054"
      },
      "geometry": {
        "type": "Point",
        "coordinates": [
          118.08946775190984,
          -42.90935645189843
        ]
      }
    }
  ]
}